[{"OBJECT_NAME":"GEOSCAN 3 (RS92S3)","OBJECT_ID":"2025-155T","EPOCH":"2026-03-09T22:52:10.587648","MEAN_MOTION":15.31696739,"ECCENTRICITY":0.00068078,"INCLINATION":97.4455,"RA_OF_ASC_NODE":37.9971,"ARG_OF_PERICENTER":154.1387,"MEAN_ANOMALY":206.0196,"EPHEMERIS_TYPE":0,"CLASSIFICATION_TYPE":"U","NORAD_CAT_ID":64893,"ELEMENT_SET_NO":999,"REV_AT_EPOCH":6564,"BSTAR":0.00078414081,"MEAN_MOTION_DOT":0.00023985,"MEAN_MOTION_DDOT":0},{"OBJECT_NAME":"STARLINK-35554","OBJECT_ID":"2025-245F","EPOCH":"2026-03-09T21:01:51.157056","MEAN_MOTION":15.30232118,"ECCENTRICITY":6.671e-5,"INCLINATION":53.1566,"RA_OF_ASC_NODE":283.1355,"ARG_OF_PERICENTER":55.4083,"MEAN_ANOMALY":304.6981,"EPHEMERIS_TYPE":0,"CLASSIFICATION_TYPE":"U","NORAD_CAT_ID":66239,"ELEMENT_SET_NO":999,"REV_AT_EPOCH":2112,"BSTAR":0.00088149449,"MEAN_MOTION_DOT":0.00025865,"MEAN_MOTION_DDOT":0}]
